EXO-0                   
1 59175U 23174DK  26068.71046781  .00011582  00000+0  36716-3 0  9992
2 59175  97.3864 148.9039 0009878 157.1125 203.0559 15.32821991129797
STARLINK-31517          
1 59213U 24046N   26068.51244537  .00000541  00000+0  30409-4 0  9998
2 59213  53.1596 156.1017 0001114  79.6531 280.4595 15.30186576113011
